EUTELSAT 133 WEST A     
1 26719U 01011A   20240.38850052  .00000056  00000-0  00000+0 0  9997
2 26719   2.1259  88.3868 0004980  63.1577 191.5138  1.00272331 71316
INTELSAT 10 (IS-10)     
1 26766U 01019A   20240.19907816  .00000103  00000-0  00000-0 0  9991
2 26766   4.0472  78.4924 0002009  76.6326 299.9454  1.00270089 24387
INTELSAT 901 (IS-901)   
1 26824U 01024A   20240.18407358 -.00000222  00000-0  00000-0 0  9990
2 26824   0.0451 278.5160 0001088 229.0505 227.0660  1.00271086  1710
ASTRA 2C                
1 26853U 01025A   20240.19428019  .00000115  00000-0  00000-0 0  9991
2 26853   2.9896  84.9668 0002854  60.5472 283.9939  1.00273680 23795
USA 159 (DSP 21)        
1 26880U 01033A   20240.17749670 -.00000315  00000-0  00000-0 0  9990
2 26880  10.8312  29.8900 0000535 354.7984 325.6557  1.00262841 11708
INTELSAT 902 (IS-902)   
1 26900U 01039A   20240.17962455 -.00000303  00000-0  00000+0 0  9993
2 26900   0.7828  96.1236 0003415  90.4213 163.8989  1.00271367 69515
EUTELSAT 12 WEST B      
1 26927U 01042A   20240.18712684 -.00000121  00000-0  00000+0 0  9992
2 26927   1.2324  93.0631 0006567  46.5046 251.1675  1.00271909 69271
USA 164 (MILSTAR-2 3)   
1 27168U 02001A   20240.25761483  .00000083  00000-0  00000+0 0  9991
2 27168   8.8369  31.6255 0002654 121.2921 294.7083  1.00274078 10392
ECHOSTAR 7              
1 27378U 02006A   20240.42124948 -.00000021  00000-0  00000+0 0  9990
2 27378   0.0676 283.3976 0001396 224.3835 221.1568  1.00274212 67818
INTELSAT 904 (IS-904)   
1 27380U 02007A   20240.32731493 -.00000235  00000-0  00000+0 0  9999
2 27380   1.6228  92.6872 0003386  58.6553 272.9997  1.00271141 67833
TDRS 9                  
1 27389U 02011A   20240.21507705 -.00000307  00000-0  00000-0 0  9999
2 27389   7.6343  66.7703 0022832 283.6870   0.6672  1.00270109 69189
JCSAT-2A                
1 27399U 02015A   20240.06473493 -.00000309  00000-0  00000+0 0  9994
2 27399   3.0658  84.7522 0005483  29.9148 338.3752  1.00422657 67365
ASTRA 3A                
1 27400U 02015B   20240.42360160 -.00000223  00000-0  00000+0 0  9998
2 27400   6.0566  63.0900 0001351  82.0901 256.5995  1.00268956 67467
NSS-7                   
1 27414U 02019A   20240.02201941 -.00000178  00000-0  00000+0 0  9993
2 27414   4.3893  76.2462 0002460  71.4316 175.9705  1.00272475 67294
DIRECTV 5 (TEMPO 1)     
1 27426U 02023A   20240.41190688 -.00000076  00000-0  00000+0 0  9996
2 27426   0.0128 152.7428 0003496   2.0281 219.4908  1.00271116 67058
INTELSAT 905 (IS-905)   
1 27438U 02027A   20240.18468422 -.00000205  00000-0  00000+0 0  9995
2 27438   1.4429  93.5876 0002702  50.7071 233.5541  1.00272368 66717
GALAXY 3C (G-3C)        
1 27445U 02030A   20240.20882741 -.00000170  00000-0  00000-0 0  9996
2 27445   0.0226 263.9519 0001426  78.1124 333.9471  1.00270658 25247
EUTELSAT 5 WEST A       
1 27460U 02035A   20240.18860985 -.00000062  00000-0  00000-0 0  9991
2 27460   0.7266  96.4386 0005216  62.4089 239.9356  1.00272143 66358
METEOSAT-8 (MSG-1)      
1 27509U 02040B   20240.12606172  .00000117  00000-0  00000-0 0  9991
2 27509   6.8453  53.7872 0001657  81.0832 287.8112  1.00277927 66000
INTELSAT 906 (IS-906)   
1 27513U 02041A   20240.20239313 -.00000006  00000-0  00000+0 0  9992
2 27513   0.4474  99.0366 0003299  72.2585 301.6079  1.00271722 65711
HISPASAT 30W-4          
1 27528U 02044A   20240.16113054  .00000097  00000-0  00000-0 0  9999
2 27528   1.2389  93.2607 0004395  43.6422 113.9097  1.00270973 21718
TDRS 10                 
1 27566U 02055A   20240.37366855  .00000071  00000-0  00000+0 0  9996
2 27566   7.0259  53.2780 0005592 302.7246 303.4209  1.00274628 64967
NSS-6                   
1 27603U 02057A   20240.08401404  .00000088  00000-0  00000-0 0  9997
2 27603   0.0150 130.6906 0005467  36.0464  29.7896  1.00274165 64788
NIMIQ 2                 
1 27632U 02062A   20240.20882741 -.00000198  00000-0  00000-0 0  9999
2 27632   4.5056  75.5146 0007006   5.6273 238.7718  1.00274598 22923
USA 167                 
1 27691U 03008A   20240.30624375  .00000036  00000-0  00000+0 0  9992
2 27691   6.7752  58.4772 0003536  19.4627 238.0637  1.00271436 10366
USA 169 (MILSTAR-2 4)   
1 27711U 03012A   20240.24764619 -.00000212  00000-0  00000-0 0  9997
2 27711   9.1542  44.3619 0002385 133.7881  39.2627  1.00270822 11695
GALAXY 12 (G-12)        
1 27715U 03013B   20240.19146670  .00000038  00000-0  00000-0 0  9992
2 27715   1.6582  92.0254 0002025  60.2490 123.5250  1.00270611 30883
ASIASAT 4               
1 27718U 03014A   20240.19724622  .00000133  00000-0  00000+0 0  9990
2 27718   0.0139 136.8409 0002123  23.6639 284.5923  1.00271696 63664
HELLAS-SAT 2            
1 27811U 03020A   20240.24268403 -.00000172  00000-0  00000+0 0  9991
2 27811   2.0770  91.4915 0002074  50.5564 186.0401  1.00272232 63079
THURAYA-2               
1 27825U 03026A   20240.12658514  .00000109  00000-0  00000-0 0  9995
2 27825   5.9880  33.1141 0004749 124.0558 268.2137  1.00271639 63094
OPTUS C1                
1 27831U 03028B   20240.43000081 -.00000171  00000-0  00000+0 0  9997
2 27831   1.5841  93.6422 0006425  56.8022 136.1410  1.00273550 63062
GALAXY 23 (G-23)        
1 27854U 03034A   20240.19146670 -.00000007  00000-0  00000-0 0  9996
2 27854   0.0580 269.0869 0003206 257.5473 117.1894  1.00273184 62482
USA 170                 
1 27875U 03040A   20240.17193292 -.00000293  00000-0  00000+0 0  9992
2 27875   6.0253  63.9725 0005908  74.2294 217.1543  1.00275539 10364
GALAXY 13 (HORIZONS 1)  
1 27954U 03044A   20240.19146670  .00000028  00000-0  00000+0 0  9999
2 27954   0.0149 112.6123 0000293  97.0660  68.1235  1.00269887 61891
YAMAL 202               
1 28089U 03053A   20240.25515981 -.00000100  00000-0  00000-0 0  9994
2 28089   1.0138  94.7614 0006085  37.6024  98.9178  1.00271734 61424
UFO 11 (USA 174)        
1 28117U 03057A   20240.05065365 -.00000116  00000-0  00000+0 0  9990
2 28117   6.1316  37.4962 0002080  47.5361 343.8828  1.00276106 61168
USA 176 (DSP 22)        
1 28158U 04004A   20239.99163126 -.00000236  00000-0  00000-0 0  9997
2 28158   9.2501  38.8452 0001381 117.4981 263.6674  1.00269518 11678
ABS-4 (MOBISAT-1)       
1 28184U 04007A   20240.20178248  .00000020  00000-0  00000-0 0  9996
2 28184   0.6961  96.1838 0005465  65.9669 307.3830  1.00274561 31085
EUTELSAT 7A             
1 28187U 04008A   20240.19576319  .00000133  00000-0  00000-0 0  9994
2 28187   0.4923  89.5917 0001175 100.9140 246.7843  1.00268213 60096
DIRECTV 7S              
1 28238U 04016A   20240.42124897 -.00000019  00000-0  00000+0 0  9999
2 28238   0.0164 117.9531 0003177  36.9045 213.8268  1.00270876 59801
AMC-11 (GE-11)          
1 28252U 04017A   20240.16634674  .00000049  00000-0  00000+0 0  9998
2 28252   0.0448 298.1083 0002965 208.0480 118.5814  1.00273253 59445
INTELSAT 10-02          
1 28358U 04022A   20240.18939498 -.00000031  00000-0  00000-0 0  9998
2 28358   0.0137 201.8844 0003288 323.8995 237.2822  1.00272518 59350
ANIK F2                 
1 28378U 04027A   20240.23441035 -.00000069  00000-0  00000-0 0  9997
2 28378   0.0211 248.2535 0000318 207.7829 213.1915  1.00271924 20022
AMC-15                  
1 28446U 04041A   20240.23724508 -.00000109  00000-0  00000+0 0  9992
2 28446   0.0601 297.1466 0002554 217.1527 161.9718  1.00271444 58086
AMC-16                  
1 28472U 04048A   20240.42449347 -.00000227  00000-0  00000+0 0  9995
2 28472   0.0659 291.4306 0002838 223.9684 248.5301  1.00271786 57563
NSS-10 (AMC-12)         
1 28526U 05003A   20240.32565747 -.00000271  00000-0  00000+0 0  9998
2 28526   1.1841  93.9358 0003093  53.3127 268.5473  1.00271514 57067
XTAR-EUR                
1 28542U 05005A   20239.98701363  .00000132  00000-0  00000+0 0  9999
2 28542   0.0361 284.6573 0002800 239.3862 195.9576  1.00272195 56922
XM-3 (RHYTHM)           
1 28626U 05008A   20240.24766328 -.00000225  00000-0  00000-0 0  9993
2 28626   0.0037 231.0794 0000459 218.4049 250.4884  1.00271356 21366
INMARSAT 4-F1           
1 28628U 05009A   20240.32525517 -.00000280  00000-0  00000+0 0  9998
2 28628   3.2101  27.8192 0003095 129.1336  79.6559  1.00271910 56414
APSTAR 6                
1 28638U 05012A   20240.25427793 -.00000106  00000-0  00000-0 0  9990
2 28638   1.8128  91.4250 0003896  54.1290  84.7690  1.00271112 81128
DIRECTV 8               
1 28659U 05019A   20240.23993889 -.00000136  00000-0  00000+0 0  9994
2 28659   0.0153 212.2640 0003050 301.9719 167.3048  1.00271632 55928
GALAXY 28 (G-28)        
1 28702U 05022A   20240.42310771 -.00000206  00000-0  00000+0 0  9999
2 28702   0.0080 133.6247 0001798 299.5259 326.2750  1.00272150 55576
EXPRESS-AM3             
1 28707U 05023A   20240.28195227 -.00000343  00000-0  00000-0 0  9999
2 28707   1.9986  90.2236 0002539  15.4357  74.8517  1.00270949 55582
THAICOM 4               
1 28786U 05028A   20240.32183917 -.00000383  00000-0  00000+0 0  9992
2 28786   0.0188 128.2064 0002797  20.7650  62.4233  1.00270861 55069
GALAXY 14 (G-14)        
1 28790U 05030A   20240.22745442  .00000017  00000-0  00000-0 0  9990
2 28790   0.0476 297.2214 0002649 214.5780 140.9903  1.00272074 55054
ANIK F1R                
1 28868U 05036A   20240.02460642 -.00000094  00000-0  00000-0 0  9992
2 28868   0.0031 325.2991 0001757 156.2483 115.7170  1.00273751 25193
GALAXY 15 (G-15)        
1 28884U 05041A   20240.38893031  .00000058  00000-0  00000+0 0  9995
2 28884   0.0508 272.8290 0001712 241.7134 188.5524  1.00271105 54377
SYRACUSE 3A             
1 28885U 05041B   20240.19899093  .00000109  00000-0  00000-0 0  9997
2 28885   0.0222 115.9563 0002640  30.2084 308.3350  1.00271438 54487
INMARSAT 4-F2           
1 28899U 05044A   20240.20230589 -.00000009  00000-0  00000+0 0  9995
2 28899   3.0631  30.5590 0003029 126.6230 315.4418  1.00272591 54245
